OTP-2                
1 10000C 25052AJ  25074.31821595  .00000000  00000+0 -10000-2 0    02
2 10000  97.4390  41.9270 0143531  52.5780 290.2130 15.17106932    16
